01949   13.3   0.15 K134I 276.68585   65.81070  265.23376    4.65769  0.2299836  0.26788418   2.3832595  0 MPO253374  1035  23 1936-2013 0.53 M-v 38h MPCLINUX   0000   (1949) Messina            20130126
01950   13.2   0.15 K134I  92.37202   53.02031   69.97499    4.22291  0.0838872  0.30648839   2.1786796  0 MPO253374  1127  23 1942-2013 0.51 M-v 38h MPCLINUX   0000   (1950) Wempe              20130214
01951   14.0   0.15 K134I 339.55885  140.47943  130.75921   39.09154  0.0616359  0.60108763   1.3905209  1 MPO247385   929  17 1949-2012 0.52 M-v 38h MPCLINUX   0005   (1951) Lick               20121208
01952   10.32  0.15 K134I 249.59747  338.13403   78.43067   14.23356  0.1392158  0.17951610   3.1121972  0 MPO250217   914  27 1951-2012 0.53 M-v 38h MPCLINUX   0000   (1952) Hesburgh           20120908
01953   11.8   0.15 K134I  58.76237  327.32535   74.27988    2.45995  0.1832846  0.17978673   3.1090733  0 MPO250217  1233  29 1929-2013 0.54 M-v 38h MPCLINUX   0000   (1953) Rupertwildt        20130117
01954   11.3   0.15 K134I  12.54840   69.23077  278.53995   14.86436  0.3074047  0.19552161   2.9399473  0 MPO250217   579  20 1952-2012 0.55 M-v 38h MPCLINUX   0000   (1954) Kukarkin           20120902
01955   12.1   0.15 K134I  64.57310  154.74388  258.15230    1.00534  0.0655600  0.20437327   2.8544339  0 MPO250217  1194  30 1949-2013 0.55 M-v 38h MPCLINUX   0000   (1955) McMath             20130114
01956   12.0   0.15 K134I  97.65260  345.95997  153.36496    1.49197  0.1018026  0.17174276   3.2054113  0 MPO250217  1240  28 1954-2012 0.57 M-v 38h MPCLINUX   0000   (1956) Artek              20120718
01957   11.36  0.15 K134I  41.40981  210.65605   50.80665   11.18028  0.0601853  0.18894445   3.0077838  0 MPO250217   981  25 1956-2012 0.59 M-v 38h MPCLINUX   0000   (1957) Angara             20120908
01958   11.1   0.15 K134I 304.69998  319.37372  345.04680   10.55943  0.1678242  0.18024432   3.1038090  0 MPO250217  1144  26 1954-2012 0.55 M-v 38h MPCLINUX   0000   (1958) Chandra            20120517
01959   12.8   0.15 K134I 194.42961   32.02581  285.11430    6.20203  0.1342359  0.27976131   2.3153196  0 MPO253374  1077  20 1930-2013 0.54 M-v 38h MPCLINUX   0000   (1959) Karbyshev          20130214
01960   11.93  0.15 K134I  42.32121  263.17390   22.32846    8.46924  0.1234151  0.24554720   2.5256862  0 MPO250217  1154  25 1955-2012 0.50 M-v 38h MPCLINUX   0000   (1960) Guisan             20120903
01961   10.7   0.15 K134I 269.98889   57.76739   29.71136    6.64128  0.1212242  0.17270319   3.1935164  0 MPO250217  1116  26 1952-2012 0.51 M-v 38h MPCLINUX   0000   (1961) Dufour             20121017
01962   12.0   0.15 K134I 343.00564   11.02729   15.47641    1.55413  0.2320858  0.17323312   3.1870003  0 MPO240204  1166  27 1927-2012 0.56 M-v 38h MPCLINUX   0000   (1962) Dunant             20121016
01963   10.91  0.15 K134I  87.51455  355.53919  106.92664   25.05141  0.2104337  0.26147459   2.4220498  0 MPO253374   858  19 1952-2013 0.43 M-v 38h MPCLINUX   0007   (1963) Bezovec            20130212
01964   13.4   0.15 K134I 181.89743  163.32993  238.62397    2.38438  0.1947349  0.25451762   2.4659872  0 MPO253374   990  22 1933-2013 0.53 M-v 38h MPCLINUX   0000   (1964) Luyten             20130214
01965   12.0   0.15 K134I 223.84543  343.46376   88.23610    2.22047  0.1055027  0.23936736   2.5689724  0 MPO250217  1284  24 1956-2012 0.53 M-v 38h MPCLINUX   0000   (1965) van de Kamp        20120802
01966   14.1   0.15 K134I  82.45105   59.95982  125.65655    2.48274  0.0896595  0.25729382   2.4482164  0 MPO250217   952  20 1951-2012 0.51 M-v 38h MPCLINUX   0000   (1966) Tristan            20120718
01967   12.0   0.15 K134I  71.44696  347.54922   57.82798    3.90050  0.1391515  0.29538472   2.2329416  0 MPO250217  1104  23 1965-2013 0.53 M-v 38h MPCLINUX   0000   (1967) Menzel             20130107
01968   11.6   0.15 K134I 246.94975  164.44596   71.52153    4.59565  0.1103614  0.21721542   2.7407890  0 MPO253374  1179  31 1932-2013 0.55 M-v 38h MPCLINUX   0000   (1968) Mehltretter        20130127
01969   11.8   0.15 K134I  90.55488  347.62109  209.22078    3.33501  0.1572538  0.18146936   3.0898247  0 MPO250217  1223  23 1930-2012 0.53 M-v 38h MPCLINUX   0000   (1969) Alain              20120906
01970   12.3   0.15 K134I 291.14925  192.80808  312.45402    7.06461  0.1594592  0.21248860   2.7812858  0 MPO253374   910  25 1949-2013 0.50 M-v 38h MPCLINUX   0000   (1970) Sumeria            20130210
01971   12.3   0.15 K134I 347.99470  122.24320  300.16410    8.69609  0.0841715  0.19035601   2.9928962  0 MPO253374   920  23 1955-2013 0.53 M-v 38h MPCLINUX   0000   (1971) Hagihara           20130206
01972   13.38  0.21 K134I 301.58637   32.90231   46.59776    4.12744  0.1665363  0.26195828   2.4190674  0 MPO240204   989  21 1964-2012 0.54 M-v 38h MPCLINUX   0000   (1972) Yi Xing            20121017
01973   12.2   0.15 K134I 292.89358  162.26317  183.23760   10.59554  0.0827440  0.17356598   3.1829243  0 MPO250217   964  27 1955-2012 0.62 M-v 38h MPCLINUX   0000   (1973) Colocolo           20120523
01974   13.0   0.15 K134I  20.78542   91.93581  168.34848   10.22542  0.0992362  0.17507481   3.1646106  0 MPO231412   753  21 1951-2012 0.60 M-v 38h MPCLINUX   0000   (1974) Caupolican         20120523
01975   11.9   0.15 K134I  88.79768  186.17831  170.32522    6.30187  0.1172310  0.20990467   2.8040644  0 MPO253374  1170  25 1946-2013 0.54 M-v 38h MPCLINUX   0000   (1975) Pikelner           20130205
01976   13.2   0.15 K134I 252.61179  118.97730   90.93789    2.37172  0.0742900  0.26807463   2.3821306  0 MPO253374  1365  28 1960-2013 0.55 M-v 38h MPCLINUX   0000   (1976) Kaverin            20130206
01977   11.5   0.15 K134I 143.13557  308.37775  332.41034    7.74958  0.0717449  0.21224638   2.7834015  0 MPO250217  1097  23 1954-2013 0.50 M-v 38h MPCLINUX   0000   (1977) Shura              20130125
01978   12.9   0.15 K134I 266.86279  268.46643   54.37569    4.34353  0.2145239  0.30328791   2.1939799  0 MPO253374  1241  26 1952-2013 0.54 M-v 38h MPCLINUX   0000   (1978) Patrice            20130207
01979   13.6   0.15 K134I  86.92487  220.56392  202.67773    6.04634  0.1004223  0.26956522   2.3733410  0 MPO253374   973  20 1960-2013 0.56 M-v 38h MPCLINUX   0000   (1979) Sakharov           20130221
01980   13.92  0.15 K134I 343.12438  115.41876  246.62937   26.86308  0.3646887  0.44092598   1.7095911  0 MPO233522  1208  20 1950-2012 0.45 M-h 3Eh MPCLINUX   1804   (1980) Tezcatlipoca       20120611
01981   15.1   0.15 K134I 310.14568  267.79601  356.93350   39.83046  0.6503593  0.41645545   1.7759212  1 MPO253374   356  19 1973-2013 0.51 M-h 3Eh MPCLINUX   9803   (1981) Midas              20130218
01982   12.8   0.15 K134I 290.35703  279.06951   42.49649    6.83841  0.2501477  0.28074181   2.3099256  0 MPO253374  1058  23 1957-2013 0.53 M-v 38h MPCLINUX   0000   (1982) Cline              20130214
01983   12.9   0.15 K134I 250.37998  345.41343   23.61197    9.40741  0.0985115  0.23211627   2.6221991  0 MPO234851   977  21 1950-2012 0.58 M-v 38h MPCLINUX   0000   (1983) Bok                20120718
01984   11.1   0.15 K134I 256.36958  128.50106  185.72793    4.79293  0.0901452  0.18870908   3.0102843  0 MPO253374  1389  31 1926-2013 0.58 M-v 38h MPCLINUX   0000   (1984) Fedynskij          20130211
01985   10.8   0.15 K134I  48.83199  233.96737  305.17856   17.15578  0.1530635  0.17852684   3.1236836  0 MPO250217   873  23 1929-2012 0.52 M-v 38h MPCLINUX   0000   (1985) Hopmann            20120620
01986   12.0   0.15 K134I  83.02814  230.78851  146.57326    2.21206  0.2038912  0.18131414   3.0915880  0 MPO250217  1237  25 1935-2013 0.55 M-v 38h MPCLINUX   0000   (1986) Plaut              20130102
01987   11.5   0.15 K134I 169.97512   38.09141  314.29905   23.67176  0.2280622  0.26828382   2.3808922  0 MPO253374   783  18 1952-2013 0.45 M-v 38h MPCLINUX   0007   (1987) Kaplan             20130217
01988   13.5   0.15 K134I  87.75208  235.29584  106.40175    4.25198  0.1023325  0.31167330   2.1544495  0 MPO253374  1168  23 1952-2013 0.52 M-v 38h MPCLINUX   0000   (1988) Delores            20130208
01989   12.5   0.15 K134I  89.36457   88.24464   25.33291    7.76432  0.0759741  0.27335608   2.3513479  0 MPO253375   988  25 1935-2013 0.49 M-v 38h MPCLINUX   0000   (1989) Tatry              20130206
01990   13.14  0.15 K134I 259.44250   11.96753  193.65881    3.13075  0.0509211  0.30734589   2.1746253  0 MPO253375  1249  24 1956-2013 0.51 M-v 38h MPCLINUX   0000   (1990) Pilcher            20130206
01991   13.4   0.15 K134I 170.59870  345.68921  328.48308    5.91877  0.2078316  0.29232831   2.2484788  0 MPO253375  1077  21 1954-2013 0.54 M-v 38h MPCLINUX   0000   (1991) Darwin             20130215
01992   12.7   0.15 K134I 251.84620   99.30163  182.60747   10.57025  0.0475406  0.19048890   2.9915041  0 MPO253375   852  21 1968-2013 0.54 M-v 38h MPCLINUX   0000   (1992) Galvarino          20130219
01993   12.9   0.15 K134I 122.97583  156.06713  158.19271   11.44766  0.0611108  0.18358515   3.0660390  0 MPO250217   869  21 1968-2013 0.54 M-v 38h MPCLINUX   0000   (1993) Guacolda           20130117
01994   12.2   0.15 K134I 300.34388   88.75031  245.02010   10.20614  0.2082416  0.22466175   2.6798879  0 MPO233522   966  23 1939-2012 0.54 M-v 38h MPCLINUX   0000   (1994) Shane              20120624
01995   13.3   0.15 K134I 334.52816  134.14693   47.25117   10.82459  0.0536868  0.24515099   2.5284068  0 MPO253375   843  22 1951-2013 0.52 M-v 38h MPCLINUX   0000   (1995) Hajek              20130218
01996   11.6   0.15 K134I 235.58363  354.29720    1.12846   15.13962  0.1391533  0.24083565   2.5585203  0 MPO253375   949  18 1961-2013 0.48 M-v 38h MPCLINUX   0000   (1996) Adams              20130209
01997   13.3   0.15 K134I  33.11334    0.72331  353.27872    6.06556  0.2059056  0.30008301   2.2095735  0 MPO240205   916  20 1950-2012 0.50 M-v 38h MPCLINUX   0000   (1997) Leverrier          20120905
